{
  "norad_id": 57348,
  "name": "STARLINK-6372",
  "history": [
    {
      "epoch": "2026-03-28T20:04:34.963392Z",
      "apogee_km": 486.45576265941145,
      "perigee_km": 484.64525916778166,
      "latitude_deg": -3.110706407110706e-05,
      "longitude_deg": 13.546642550781565,
      "height_km": 485.27267814528653,
      "semi_major_axis_km": 6863.687510913596,
      "eccentricity": 0.00013189,
      "inclination_deg": 43.0023,
      "raan_deg": 140.9436,
      "arg_perigee_deg": 273.4715,
      "mean_anomaly_deg": 86.5985,
      "mean_motion_rev_day": 15.26745005
    },
    {
      "epoch": "2026-03-29T03:55:37.396128Z",
      "apogee_km": 486.42800847777926,
      "perigee_km": 484.6806499391887,
      "latitude_deg": -3.4860174975952654e-05,
      "longitude_deg": -106.38031362937944,
      "height_km": 485.3058101565209,
      "semi_major_axis_km": 6863.691329208484,
      "eccentricity": 0.00012729,
      "inclination_deg": 43.0019,
      "raan_deg": 139.0992,
      "arg_perigee_deg": 271.667,
      "mean_anomaly_deg": 88.4035,
      "mean_motion_rev_day": 15.26743731
    },
    {
      "epoch": "2026-03-30T12:54:00.088128Z",
      "apogee_km": 486.473740570209,
      "perigee_km": 484.67352654523984,
      "latitude_deg": 5.8234667171662275e-05,
      "longitude_deg": 109.92198493246438,
      "height_km": 485.386604615526,
      "semi_major_axis_km": 6863.710633557725,
      "eccentricity": 0.00013114,
      "inclination_deg": 43.001,
      "raan_deg": 131.3501,
      "arg_perigee_deg": 267.6976,
      "mean_anomaly_deg": 92.3726,
      "mean_motion_rev_day": 15.2673729
    },
    {
      "epoch": "2026-03-30T19:10:49.887264Z",
      "apogee_km": 486.473555424227,
      "perigee_km": 484.66153742397,
      "latitude_deg": -1.2296657262323667e-05,
      "longitude_deg": 13.980582659926275,
      "height_km": 485.38181982707357,
      "semi_major_axis_km": 6863.704546424098,
      "eccentricity": 0.000132,
      "inclination_deg": 43.0013,
      "raan_deg": 129.8742,
      "arg_perigee_deg": 267.6332,
      "mean_anomaly_deg": 92.4368,
      "mean_motion_rev_day": 15.26739321
    },
    {
      "epoch": "2026-03-31T12:27:05.911488Z",
      "apogee_km": 486.58032782945884,
      "perigee_km": 484.31301160000476,
      "latitude_deg": 5.5692961004773434e-05,
      "longitude_deg": 110.14518891863754,
      "height_km": 485.1785593582752,
      "semi_major_axis_km": 6863.5836697147315,
      "eccentricity": 0.00016517,
      "inclination_deg": 43.0012,
      "raan_deg": 125.8148,
      "arg_perigee_deg": 272.2865,
      "mean_anomaly_deg": 87.7798,
      "mean_motion_rev_day": 15.26779653
    },
    {
      "epoch": "2026-04-01T18:17:04.856064Z",
      "apogee_km": 486.63851709374376,
      "perigee_km": 484.53272699330046,
      "latitude_deg": -6.689579302919268e-06,
      "longitude_deg": 14.413422184720982,
      "height_km": 485.44812628644064,
      "semi_major_axis_km": 6863.722622043521,
      "eccentricity": 0.0001534,
      "inclination_deg": 43.0001,
      "raan_deg": 118.8039,
      "arg_perigee_deg": 265.336,
      "mean_anomaly_deg": 94.7316,
      "mean_motion_rev_day": 15.2673329
    },
    {
      "epoch": "2026-04-02T08:24:57.028320Z",
      "apogee_km": 486.6283823800559,
      "perigee_km": 484.47977252517103,
      "latitude_deg": 4.003852628289672e-06,
      "longitude_deg": 158.54350365021747,
      "height_km": 485.3389034535436,
      "semi_major_axis_km": 6863.691077452613,
      "eccentricity": 0.00015652,
      "inclination_deg": 43.0006,
      "raan_deg": 115.4817,
      "arg_perigee_deg": 269.5818,
      "mean_anomaly_deg": 90.4854,
      "mean_motion_rev_day": 15.26743815
    },
    {
      "epoch": "2026-04-03T17:23:18.227328Z",
      "apogee_km": 486.4168902029396,
      "perigee_km": 484.65978931596237,
      "latitude_deg": 1.6095696792430894e-05,
      "longitude_deg": 14.851753015478897,
      "height_km": 485.4232264686277,
      "semi_major_axis_km": 6863.675339759451,
      "eccentricity": 0.000128,
      "inclination_deg": 43.0013,
      "raan_deg": 107.7324,
      "arg_perigee_deg": 262.9333,
      "mean_anomaly_deg": 97.1373,
      "mean_motion_rev_day": 15.26749066
    },
    {
      "epoch": "2026-04-04T09:05:23.948160Z",
      "apogee_km": 486.673745545304,
      "perigee_km": 484.51606278391046,
      "latitude_deg": -1.6433506524363496e-05,
      "longitude_deg": 134.99493979506397,
      "height_km": 485.39014479697033,
      "semi_major_axis_km": 6863.731904164607,
      "eccentricity": 0.00015718,
      "inclination_deg": 43.0029,
      "raan_deg": 104.0443,
      "arg_perigee_deg": 269.0444,
      "mean_anomaly_deg": 91.0227,
      "mean_motion_rev_day": 15.26730193
    },
    {
      "epoch": "2026-04-05T07:04:18.540192Z",
      "apogee_km": 486.720414809045,
      "perigee_km": 484.41146514003776,
      "latitude_deg": 5.575380662817739e-06,
      "longitude_deg": 159.1982336197879,
      "height_km": 485.4092607865761,
      "semi_major_axis_km": 6863.702939974541,
      "eccentricity": 0.0001682,
      "inclination_deg": 43.0032,
      "raan_deg": 98.8778,
      "arg_perigee_deg": 266.7245,
      "mean_anomaly_deg": 93.3414,
      "mean_motion_rev_day": 15.26739857
    },
    {
      "epoch": "2026-04-06T00:20:35.755008Z",
      "apogee_km": 486.8420450939411,
      "perigee_km": 484.3082371199307,
      "latitude_deg": 1.3591623057004242e-05,
      "longitude_deg": -104.64420071839089,
      "height_km": 485.35902291030663,
      "semi_major_axis_km": 6863.712141106936,
      "eccentricity": 0.00018458,
      "inclination_deg": 43.0018,
      "raan_deg": 94.8164,
      "arg_perigee_deg": 269.7041,
      "mean_anomaly_deg": 90.3599,
      "mean_motion_rev_day": 15.26736787
    },
    {
      "epoch": "2026-04-07T07:44:45.441888Z",
      "apogee_km": 486.53544392671574,
      "perigee_km": 484.61387920994366,
      "latitude_deg": -3.1287516892747512e-06,
      "longitude_deg": 135.64875337433682,
      "height_km": 485.3884341082512,
      "semi_major_axis_km": 6863.71166156833,
      "eccentricity": 0.00013998,
      "inclination_deg": 43.0028,
      "raan_deg": 87.4394,
      "arg_perigee_deg": 267.812,
      "mean_anomaly_deg": 92.2571,
      "mean_motion_rev_day": 15.26736947
    },
    {
      "epoch": "2026-04-08T05:43:40.392480Z",
      "apogee_km": 486.5185267701363,
      "perigee_km": 484.6686141067921,
      "latitude_deg": -3.926183844052909e-06,
      "longitude_deg": 159.851323184842,
      "height_km": 485.3261664482467,
      "semi_major_axis_km": 6863.730570438464,
      "eccentricity": 0.00013476,
      "inclination_deg": 43.002,
      "raan_deg": 82.2737,
      "arg_perigee_deg": 272.7498,
      "mean_anomaly_deg": 87.3199,
      "mean_motion_rev_day": 15.26730638
    },
    {
      "epoch": "2026-04-09T14:42:01.740960Z",
      "apogee_km": 486.4320449789966,
      "perigee_km": 484.66395972239116,
      "latitude_deg": -3.1047907409997655e-06,
      "longitude_deg": 16.15713149460622,
      "height_km": 485.3831548758647,
      "semi_major_axis_km": 6863.685002350694,
      "eccentricity": 0.0001288,
      "inclination_deg": 43.0013,
      "raan_deg": 74.5226,
      "arg_perigee_deg": 266.217,
      "mean_anomaly_deg": 93.8534,
      "mean_motion_rev_day": 15.26745842
    },
    {
      "epoch": "2026-04-10T04:49:45.152256Z",
      "apogee_km": 486.9877528797815,
      "perigee_km": 483.56538033892775,
      "latitude_deg": -4.950588974345515e-05,
      "longitude_deg": 160.31975386468608,
      "height_km": 484.5998351016871,
      "semi_major_axis_km": 6863.413566609354,
      "eccentricity": 0.00024932,
      "inclination_deg": 42.9967,
      "raan_deg": 71.1964,
      "arg_perigee_deg": 285.3845,
      "mean_anomaly_deg": 74.673,
      "mean_motion_rev_day": 15.26836413
    },
    {
      "epoch": "2026-04-11T04:22:03.515232Z",
      "apogee_km": 486.0019031507145,
      "perigee_km": 482.1412246126756,
      "latitude_deg": 6.970652052169607e-05,
      "longitude_deg": 160.74067727416045,
      "height_km": 483.549415857792,
      "semi_major_axis_km": 6862.208563881695,
      "eccentricity": 0.0002813,
      "inclination_deg": 43.0,
      "raan_deg": 65.6604,
      "arg_perigee_deg": 278.9387,
      "mean_anomaly_deg": 81.1147,
      "mean_motion_rev_day": 15.27238599
    },
    {
      "epoch": "2026-04-13T06:00:02.000160Z",
      "apogee_km": 484.13888057388976,
      "perigee_km": 482.1094567454238,
      "latitude_deg": -29.30495528468586,
      "longitude_deg": -20.694581146338347,
      "height_km": 490.04314658250684,
      "semi_major_axis_km": 6861.2611686596565,
      "eccentricity": 0.00014789,
      "inclination_deg": 43.0007,
      "raan_deg": 53.9897,
      "arg_perigee_deg": 260.4939,
      "mean_anomaly_deg": 325.0586,
      "mean_motion_rev_day": 15.27554929
    },
    {
      "epoch": "2026-04-14T20:14:58.213248Z",
      "apogee_km": 484.1471086194815,
      "perigee_km": 481.97348131643685,
      "latitude_deg": 2.606100568147875e-06,
      "longitude_deg": -101.7703823725129,
      "height_km": 483.0852386948538,
      "semi_major_axis_km": 6861.197294967959,
      "eccentricity": 0.0001584,
      "inclination_deg": 43.0033,
      "raan_deg": 44.9865,
      "arg_perigee_deg": 256.8207,
      "mean_anomaly_deg": 103.2468,
      "mean_motion_rev_day": 15.2757626
    },
    {
      "epoch": "2026-04-15T19:47:19.018752Z",
      "apogee_km": 484.12294559438305,
      "perigee_km": 481.993230639031,
      "latitude_deg": -2.9822374321149848e-05,
      "longitude_deg": -101.36282167028958,
      "height_km": 483.09989317473145,
      "semi_major_axis_km": 6861.195088116707,
      "eccentricity": 0.0001552,
      "inclination_deg": 43.0034,
      "raan_deg": 39.4475,
      "arg_perigee_deg": 255.6081,
      "mean_anomaly_deg": 104.4598,
      "mean_motion_rev_day": 15.27576997
    }
  ]
}